[{"OBJECT_NAME":"ICEYE-X4","OBJECT_ID":"2019-038D","EPOCH":"2026-03-09T23:53:58.416000","MEAN_MOTION":15.26985132,"ECCENTRICITY":0.00122769,"INCLINATION":97.8888,"RA_OF_ASC_NODE":96.1923,"ARG_OF_PERICENTER":293.9914,"MEAN_ANOMALY":66.0038,"EPHEMERIS_TYPE":0,"CLASSIFICATION_TYPE":"U","NORAD_CAT_ID":44390,"ELEMENT_SET_NO":999,"REV_AT_EPOCH":36665,"BSTAR":0.00049915294,"MEAN_MOTION_DOT":0.00013179,"MEAN_MOTION_DDOT":0},{"OBJECT_NAME":"STARLINK-35610","OBJECT_ID":"2025-259G","EPOCH":"2026-03-09T23:02:24.642816","MEAN_MOTION":15.27587366,"ECCENTRICITY":0.00023956,"INCLINATION":43.0029,"RA_OF_ASC_NODE":272.7341,"ARG_OF_PERICENTER":274.9006,"MEAN_ANOMALY":85.1572,"EPHEMERIS_TYPE":0,"CLASSIFICATION_TYPE":"U","NORAD_CAT_ID":66428,"ELEMENT_SET_NO":999,"REV_AT_EPOCH":1953,"BSTAR":0.0010125274,"MEAN_MOTION_DOT":0.00027712,"MEAN_MOTION_DDOT":0}]
